     2.10           N: GPS NAV DATA                         RINEX VERSION / TYPE
RTKCONV 2.4.2                           20180405 130206 UTC PGM / RUN BY / DATE 
log: C:\Users\heath\Desktop\Heath\GPS Research\COM4_180405  COMMENT             
format: u-blox                                              COMMENT             
                                                            END OF HEADER       
25 18  4  5 14  0  0.0 -.564813148230E-03 -.602540239925E-11  .000000000000E+00
     .710000000000E+02  .465625000000E+01  .443125600817E-08  .291557400765E+00
     .348314642906E-06  .742956914473E-02  .320561230183E-05  .515366349220E+04
     .396000000000E+06 -.130385160446E-07  .243996821751E+01  .128522515297E-06
     .974640811645E+00  .322343750000E+03  .835674533816E+00 -.831534636755E-08
    -.185007706314E-09  .100000000000E+01  .199500000000E+04  .000000000000E+00
     .240000000000E+01  .000000000000E+00  .558793544769E-08  .710000000000E+02
     .392526000000E+06  .400000000000E+01
